{
  "norad_id": 58241,
  "name": "STARLINK-30843",
  "history": [
    {
      "epoch": "2026-03-28T12:37:13.791648Z",
      "apogee_km": 483.70753308968233,
      "perigee_km": 482.3792085698906,
      "latitude_deg": -1.7335653883598732e-06,
      "longitude_deg": 163.7228917480893,
      "height_km": 482.92415121950603,
      "semi_major_axis_km": 6861.180370829787,
      "eccentricity": 9.68e-05,
      "inclination_deg": 42.9963,
      "raan_deg": 178.9754,
      "arg_perigee_deg": 260.9136,
      "mean_anomaly_deg": 99.1606,
      "mean_motion_rev_day": 15.27581912
    },
    {
      "epoch": "2026-03-30T05:25:19.108704Z",
      "apogee_km": 483.78963847383056,
      "perigee_km": 482.3995529525391,
      "latitude_deg": 5.659239142892188e-06,
      "longitude_deg": -99.57611129982476,
      "height_km": 483.06016204022757,
      "semi_major_axis_km": 6861.231595713184,
      "eccentricity": 0.0001013,
      "inclination_deg": 42.9986,
      "raan_deg": 169.3742,
      "arg_perigee_deg": 254.1859,
      "mean_anomaly_deg": 105.8881,
      "mean_motion_rev_day": 15.27564805
    },
    {
      "epoch": "2026-03-30T06:59:31.299936Z",
      "apogee_km": 483.69733210147024,
      "perigee_km": 482.8806851779209,
      "latitude_deg": 5.8184658432207945e-06,
      "longitude_deg": -123.55938764495909,
      "height_km": 483.0122117630181,
      "semi_major_axis_km": 6861.426008639695,
      "eccentricity": 5.951e-05,
      "inclination_deg": 42.999,
      "raan_deg": 169.0062,
      "arg_perigee_deg": 277.4136,
      "mean_anomaly_deg": 82.6648,
      "mean_motion_rev_day": 15.27499882
    },
    {
      "epoch": "2026-03-30T13:16:04.683072Z",
      "apogee_km": 483.8361864835415,
      "perigee_km": 482.17043883843326,
      "latitude_deg": 2.7666697234227984e-05,
      "longitude_deg": 140.56529587139235,
      "height_km": 482.8844723674656,
      "semi_major_axis_km": 6861.140312660987,
      "eccentricity": 0.00012139,
      "inclination_deg": 42.9982,
      "raan_deg": 167.5277,
      "arg_perigee_deg": 262.7684,
      "mean_anomaly_deg": 97.303,
      "mean_motion_rev_day": 15.2759529
    },
    {
      "epoch": "2026-03-31T12:48:26.093376Z",
      "apogee_km": 483.9658069893858,
      "perigee_km": 482.1046454113066,
      "latitude_deg": 1.6751401290388234e-05,
      "longitude_deg": 140.97375198985782,
      "height_km": 482.586793286697,
      "semi_major_axis_km": 6861.172226200346,
      "eccentricity": 0.00013563,
      "inclination_deg": 43.0004,
      "raan_deg": 161.9921,
      "arg_perigee_deg": 284.0007,
      "mean_anomaly_deg": 76.0694,
      "mean_motion_rev_day": 15.27584632
    },
    {
      "epoch": "2026-04-01T06:04:09.734016Z",
      "apogee_km": 483.797263076066,
      "perigee_km": 482.3330825323901,
      "latitude_deg": 4.3946234107608545e-05,
      "longitude_deg": -122.73068421816602,
      "height_km": 482.82391653544636,
      "semi_major_axis_km": 6861.202172804228,
      "eccentricity": 0.0001067,
      "inclination_deg": 43.0002,
      "raan_deg": 157.9284,
      "arg_perigee_deg": 271.385,
      "mean_anomaly_deg": 88.688,
      "mean_motion_rev_day": 15.27574631
    },
    {
      "epoch": "2026-04-02T10:18:58.096512Z",
      "apogee_km": 483.84391808023975,
      "perigee_km": 482.19943556857834,
      "latitude_deg": -1.956253119842247e-05,
      "longitude_deg": 165.7615853610242,
      "height_km": 483.0737832426649,
      "semi_major_axis_km": 6861.158676824409,
      "eccentricity": 0.00011984,
      "inclination_deg": 43.0011,
      "raan_deg": 151.2823,
      "arg_perigee_deg": 250.4202,
      "mean_anomaly_deg": 109.652,
      "mean_motion_rev_day": 15.27589157
    },
    {
      "epoch": "2026-04-03T09:51:19.615680Z",
      "apogee_km": 483.88062412730415,
      "perigee_km": 482.3084415338717,
      "latitude_deg": 8.254938046572657e-07,
      "longitude_deg": 166.1652191233442,
      "height_km": 483.0987255111767,
      "semi_major_axis_km": 6861.231532830588,
      "eccentricity": 0.00011457,
      "inclination_deg": 43.0008,
      "raan_deg": 145.7423,
      "arg_perigee_deg": 253.1631,
      "mean_anomaly_deg": 106.9095,
      "mean_motion_rev_day": 15.27564826
    },
    {
      "epoch": "2026-04-04T20:22:46.115904Z",
      "apogee_km": 483.36956155485314,
      "perigee_km": 482.8041967072122,
      "latitude_deg": -5.6532272176254794e-05,
      "longitude_deg": -1.2393119402995652,
      "height_km": 483.0886820943466,
      "semi_major_axis_km": 6861.223879131032,
      "eccentricity": 4.12e-05,
      "inclination_deg": 42.9994,
      "raan_deg": 137.6161,
      "arg_perigee_deg": 143.3313,
      "mean_anomaly_deg": 216.7566,
      "mean_motion_rev_day": 15.27567382
    },
    {
      "epoch": "2026-04-05T12:04:42.306816Z",
      "apogee_km": 485.89631497985556,
      "perigee_km": 483.09663502739295,
      "latitude_deg": 1.618707317667479e-05,
      "longitude_deg": 118.94830312845941,
      "height_km": 484.1812298625285,
      "semi_major_axis_km": 6862.633475003624,
      "eccentricity": 0.00020398,
      "inclination_deg": 43.0062,
      "raan_deg": 133.9325,
      "arg_perigee_deg": 86.3531,
      "mean_anomaly_deg": 273.7554,
      "mean_motion_rev_day": 15.27096759
    },
    {
      "epoch": "2026-04-05T19:54:52.552224Z",
      "apogee_km": 485.10589352740953,
      "perigee_km": 478.48742953076544,
      "latitude_deg": -4.697627071214266e-05,
      "longitude_deg": -0.7672744443000166,
      "height_km": 479.704870027881,
      "semi_major_axis_km": 6859.933661529087,
      "eccentricity": 0.0004824,
      "inclination_deg": 43.0091,
      "raan_deg": 132.0815,
      "arg_perigee_deg": 304.4379,
      "mean_anomaly_deg": 55.6016,
      "mean_motion_rev_day": 15.2799836
    },
    {
      "epoch": "2026-04-06T06:00:02.000160Z",
      "apogee_km": 484.2045780060125,
      "perigee_km": 481.8959257195056,
      "latitude_deg": 18.1986921278203,
      "longitude_deg": 4.6355305476407045,
      "height_km": 482.80536718690684,
      "semi_major_axis_km": 6861.187251862759,
      "eccentricity": 0.00016824,
      "inclination_deg": 43.0018,
      "raan_deg": 129.7106,
      "arg_perigee_deg": 270.7094,
      "mean_anomaly_deg": 242.136,
      "mean_motion_rev_day": 15.27579614
    },
    {
      "epoch": "2026-04-07T11:09:02.062944Z",
      "apogee_km": 484.20148412107665,
      "perigee_km": 481.79528394189674,
      "latitude_deg": -2.5143570620517715e-05,
      "longitude_deg": 119.8498524326999,
      "height_km": 482.676756335022,
      "semi_major_axis_km": 6861.135384031487,
      "eccentricity": 0.00017535,
      "inclination_deg": 43.0025,
      "raan_deg": 122.8496,
      "arg_perigee_deg": 274.7154,
      "mean_anomaly_deg": 85.3497,
      "mean_motion_rev_day": 15.27596936
    },
    {
      "epoch": "2026-04-07T18:59:48.803712Z",
      "apogee_km": 484.2365147825594,
      "perigee_km": 481.78159672381116,
      "latitude_deg": -5.772889516488483e-06,
      "longitude_deg": -0.013717854075890247,
      "height_km": 482.7036665807557,
      "semi_major_axis_km": 6861.146055753185,
      "eccentricity": 0.0001789,
      "inclination_deg": 43.0024,
      "raan_deg": 121.003,
      "arg_perigee_deg": 273.8622,
      "mean_anomaly_deg": 86.2025,
      "mean_motion_rev_day": 15.27593372
    },
    {
      "epoch": "2026-04-08T02:50:35.778624Z",
      "apogee_km": 484.20084323047195,
      "perigee_km": 481.87078894212846,
      "latitude_deg": -2.4219597913468976e-05,
      "longitude_deg": -119.87800675711794,
      "height_km": 482.7474626833594,
      "semi_major_axis_km": 6861.1728160862995,
      "eccentricity": 0.0001698,
      "inclination_deg": 43.0023,
      "raan_deg": 119.1567,
      "arg_perigee_deg": 273.226,
      "mean_anomaly_deg": 86.8397,
      "mean_motion_rev_day": 15.27584435
    },
    {
      "epoch": "2026-04-09T02:22:56.121024Z",
      "apogee_km": 484.0722783885585,
      "perigee_km": 481.98181892621324,
      "latitude_deg": -1.1015392241855556e-05,
      "longitude_deg": -119.46906740976252,
      "height_km": 482.8367581921754,
      "semi_major_axis_km": 6861.164048657385,
      "eccentricity": 0.00015234,
      "inclination_deg": 43.0025,
      "raan_deg": 113.6171,
      "arg_perigee_deg": 268.2109,
      "mean_anomaly_deg": 91.8568,
      "mean_motion_rev_day": 15.27587363
    },
    {
      "epoch": "2026-04-10T01:55:16.910976Z",
      "apogee_km": 484.05648578401815,
      "perigee_km": 482.0251654769618,
      "latitude_deg": -7.356622025667731e-06,
      "longitude_deg": -119.06100794697038,
      "height_km": 482.7834224533957,
      "semi_major_axis_km": 6861.17782563049,
      "eccentricity": 0.00014803,
      "inclination_deg": 43.0031,
      "raan_deg": 108.0785,
      "arg_perigee_deg": 271.9478,
      "mean_anomaly_deg": 88.1204,
      "mean_motion_rev_day": 15.27582762
    },
    {
      "epoch": "2026-04-11T17:09:11.922048Z",
      "apogee_km": 483.8823233623689,
      "perigee_km": 482.25072916382396,
      "latitude_deg": -3.148900496327862e-05,
      "longitude_deg": 1.6169513815190664,
      "height_km": 482.82199136860856,
      "semi_major_axis_km": 6861.203526263096,
      "eccentricity": 0.0001189,
      "inclination_deg": 43.0045,
      "raan_deg": 98.8469,
      "arg_perigee_deg": 271.5149,
      "mean_anomaly_deg": 88.5566,
      "mean_motion_rev_day": 15.27574179
    },
    {
      "epoch": "2026-04-13T00:32:21.022656Z",
      "apogee_km": 483.78546720262693,
      "perigee_km": 482.43572257576034,
      "latitude_deg": -2.0112638283347557e-06,
      "longitude_deg": -117.8453088490811,
      "height_km": 482.9124013479163,
      "semi_major_axis_km": 6861.247594889193,
      "eccentricity": 9.836e-05,
      "inclination_deg": 43.0045,
      "raan_deg": 91.4615,
      "arg_perigee_deg": 267.8803,
      "mean_anomaly_deg": 92.1936,
      "mean_motion_rev_day": 15.27559462
    }
  ]
}